[{"OBJECT_NAME":"STARLINK-4272","OBJECT_ID":"2022-062AN","EPOCH":"2026-03-09T06:21:59.461056","MEAN_MOTION":15.08831406,"ECCENTRICITY":0.00013557,"INCLINATION":53.2188,"RA_OF_ASC_NODE":26.0231,"ARG_OF_PERICENTER":114.2772,"MEAN_ANOMALY":245.8362,"EPHEMERIS_TYPE":0,"CLASSIFICATION_TYPE":"U","NORAD_CAT_ID":52866,"ELEMENT_SET_NO":999,"REV_AT_EPOCH":20586,"BSTAR":-5.7877137e-5,"MEAN_MOTION_DOT":-1.209e-5,"MEAN_MOTION_DDOT":0},{"OBJECT_NAME":"JILIN-1 KUANFU 02A","OBJECT_ID":"2023-127A","EPOCH":"2026-03-09T22:42:00.221760","MEAN_MOTION":15.09948681,"ECCENTRICITY":0.0009702,"INCLINATION":97.5529,"RA_OF_ASC_NODE":164.1218,"ARG_OF_PERICENTER":318.2814,"MEAN_ANOMALY":41.7675,"EPHEMERIS_TYPE":0,"CLASSIFICATION_TYPE":"U","NORAD_CAT_ID":57696,"ELEMENT_SET_NO":999,"REV_AT_EPOCH":14065,"BSTAR":0.00045097028,"MEAN_MOTION_DOT":7.263e-5,"MEAN_MOTION_DDOT":0}]
